NORAD_CAT_ID,OBJECT_NAME,OBJECT_TYPE,EPOCH,MEAN_MOTION,ECCENTRICITY,INCLINATION,RA_OF_ASC_NODE,ARG_OF_PERICENTER,MEAN_ANOMALY,BSTAR,MEAN_MOTION_DOT,MEAN_MOTION_DDOT,TLE_LINE0,TLE_LINE1,TLE_LINE2,SEMIMAJOR_AXIS,PERIOD,APOGEE,PERIGEE,DECAYED
51736.0,STARLINK-3447,PAYLOAD,2023-05-08 17:11:26,15.08848133,0.0001072,53.2162,289.7833,103.0423,257.0689,0.00010892,1.446e-05,0.0,0 STARLINK-3447,1 51736U 22016Y   23128.71628467  .00001446  00000-0  10892-3 0  9998,2 51736  53.2162 289.7833 0001072 103.0423 257.0689 15.08848133 67164,6917.856,95.437,540.462,538.979,0.0
51736.0,STARLINK-3447,PAYLOAD,2023-05-09 13:51:28,15.0884042,9.5e-05,53.2165,285.9178,103.5994,256.5104,0.00019637,2.839e-05,0.0,0 STARLINK-3447,1 51736U 22016Y   23129.57740891  .00002839  00000-0  19637-3 0  9992,2 51736  53.2165 285.9178 0000950 103.5994 256.5104 15.08840420 67290,6917.879,95.438,540.401,539.087,0.0
51736.0,STARLINK-3447,PAYLOAD,2023-05-09 17:02:14,15.08841794,0.0001048,53.2153,285.326,81.5849,278.5262,0.00018743,2.697e-05,0.0,0 STARLINK-3447,1 51736U 22016Y   23129.70988922  .00002697  00000-0  18743-3 0  9995,2 51736  53.2153 285.3260 0001048  81.5849 278.5262 15.08841794 67313,6917.875,95.437,540.465,539.015,0.0
51736.0,STARLINK-3447,PAYLOAD,2023-05-10 18:28:24,15.08850344,0.0001043,53.2165,280.5652,78.3209,281.7901,0.00015875,2.24e-05,0.0,0 STARLINK-3447,1 51736U 22016Y   23130.76972496  .00002240  00000-0  15875-3 0  9999,2 51736  53.2165 280.5652 0001043  78.3209 281.7901 15.08850344 68607,6917.849,95.437,540.435,538.992,0.0
51736.0,STARLINK-3447,PAYLOAD,2023-05-11 02:25:20,15.08843567,9.1e-05,53.215,279.0793,73.2046,286.9046,5.0431e-05,5.15e-06,0.0,0 STARLINK-3447,1 51736U 22016Y   23131.10092754  .00000515  00000-0  50431-4 0  9999,2 51736  53.2150 279.0793 0000910  73.2046 286.9046 15.08843567 68656,6917.869,95.437,540.364,539.105,0.0
51736.0,STARLINK-3447,PAYLOAD,2023-05-11 16:43:48,15.08843562,0.0001037,53.2146,276.4059,85.5394,274.5716,0.00013897,1.925e-05,0.0,0 STARLINK-3447,1 51736U 22016Y   23131.69708803  .00001925  00000-0  13897-3 0  9992,2 51736  53.2146 276.4059 0001037  85.5394 274.5716 15.08843562 67617,6917.87,95.437,540.452,539.017,0.0
51736.0,STARLINK-3447,PAYLOAD,2023-05-12 02:16:07,15.08840541,0.0001,53.2151,274.622,84.7203,275.3903,2.3788e-05,9.1e-07,0.0,0 STARLINK-3447,1 51736U 22016Y   23132.09452906  .00000091  00000-0  23788-4 0  9991,2 51736  53.2151 274.6220 0001000  84.7203 275.3903 15.08840541 67670,6917.879,95.438,540.436,539.052,0.0
51736.0,STARLINK-3447,PAYLOAD,2023-05-12 16:34:35,15.08838309,0.0001131,53.2158,271.9474,111.296,248.8153,7.3636e-05,8.84e-06,0.0,0 STARLINK-3447,1 51736U 22016Y   23132.69069194  .00000884  00000-0  73636-4 0  9997,2 51736  53.2158 271.9474 0001131 111.2960 248.8153 15.08838309 68895,6917.886,95.438,540.533,538.968,0.0
51736.0,STARLINK-3447,PAYLOAD,2023-05-13 13:14:36,15.08840508,0.0001175,53.2176,268.0808,95.448,264.6646,7.9777e-05,9.82e-06,0.0,0 STARLINK-3447,1 51736U 22016Y   23133.55181127  .00000982  00000-0  79777-4 0  9995,2 51736  53.2176 268.0808 0001175  95.4480 264.6646 15.08840508 67897,6917.879,95.438,540.557,538.931,0.0
51736.0,STARLINK-3447,PAYLOAD,2023-05-13 16:25:22,15.08844906,0.0001062,53.2168,267.4851,86.9443,273.167,7.8436e-05,9.61e-06,0.0,0 STARLINK-3447,1 51736U 22016Y   23133.68428878  .00000961  00000-0  78436-4 0  9994,2 51736  53.2168 267.4851 0001062  86.9443 273.1670 15.08844906 67919,6917.865,95.437,540.465,538.996,0.0
51736.0,STARLINK-3447,PAYLOAD,2023-05-14 01:57:41,15.08837765,0.0001034,53.2169,265.702,88.0739,272.0372,6.6632e-05,7.73e-06,0.0,0 STARLINK-3447,1 51736U 22016Y   23134.08173349  .00000773  00000-0  66632-4 0  9995,2 51736  53.2169 265.7020 0001034  88.0739 272.0372 15.08837765 69104,6917.887,95.438,540.468,539.037,0.0
51736.0,STARLINK-3447,PAYLOAD,2023-05-14 13:05:24,15.08828882,0.0001166,53.2169,263.6206,90.7584,269.3541,-4.6981e-05,-1.035e-05,0.0,0 STARLINK-3447,1 51736U 22016Y   23134.54542001 -.00001035  00000-0 -46981-4 0  9990,2 51736  53.2169 263.6206 0001166  90.7584 269.3541 15.08828882 69175,6917.914,95.438,540.586,538.973,0.0
51736.0,STARLINK-3447,PAYLOAD,2023-05-14 16:16:10,15.08835016,0.0001196,53.2165,263.0237,81.0857,279.027,-3.2601e-05,-8.07e-06,0.0,0 STARLINK-3447,1 51736U 22016Y   23134.67789740 -.00000807  00000-0 -32601-4 0  9997,2 51736  53.2165 263.0237 0001196  81.0857 279.0270 15.08835016 68069,6917.896,95.438,540.588,538.933,0.0
51736.0,STARLINK-3447,PAYLOAD,2023-05-15 01:48:29,15.08839005,0.0001199,53.2164,261.2397,83.3452,276.7676,3.6945e-05,3e-06,0.0,0 STARLINK-3447,1 51736U 22016Y   23135.07533678  .00000300  00000-0  36945-4 0  9990,2 51736  53.2164 261.2397 0001199  83.3452 276.7676 15.08839005 69252,6917.883,95.438,540.578,538.919,0.0
51736.0,STARLINK-3447,PAYLOAD,2023-05-15 14:31:33,15.08842819,8.72e-05,53.2159,258.8608,81.7998,278.3093,0.00014124,1.961e-05,0.0,0 STARLINK-3447,1 51736U 22016Y   23135.60525364  .00001961  00000-0  14124-3 0  9990,2 51736  53.2159 258.8608 0000872  81.7998 278.3093 15.08842819 68209,6917.872,95.437,540.34,539.134,0.0
51736.0,STARLINK-3447,PAYLOAD,2023-05-16 12:46:56,15.08872564,0.0001141,53.2161,254.6959,74.8689,285.243,-0.00042965,-7.125e-05,0.0,0 STARLINK-3447,1 51736U 22016Y   23136.53260243 -.00007125  00000-0 -42965-3 0  9999,2 51736  53.2161 254.6959 0001141  74.8689 285.2430 15.08872564 69477,6917.781,95.435,540.435,538.857,0.0
51736.0,STARLINK-3447,PAYLOAD,2023-05-16 17:33:07,15.08843536,0.0001003,53.2152,253.8034,87.4884,272.6223,0.00013948,1.933e-05,0.0,0 STARLINK-3447,1 51736U 22016Y   23136.73133654  .00001933  00000-0  13948-3 0  9994,2 51736  53.2152 253.8034 0001003  87.4884 272.6223 15.08843536 69507,6917.87,95.437,540.428,539.041,0.0
51736.0,STARLINK-3447,PAYLOAD,2023-05-17 14:13:07,15.0884449,0.0001178,53.2165,249.9373,101.191,258.9214,0.00010832,1.437e-05,0.0,0 STARLINK-3447,1 51736U 22016Y   23137.59245258  .00001437  00000-0  10832-3 0  9991,2 51736  53.2165 249.9373 0001178 101.1910 258.9214 15.08844490 68506,6917.867,95.437,540.547,538.917,0.0
51736.0,STARLINK-3447,PAYLOAD,2023-05-18 12:28:32,15.08836368,0.0001223,53.2159,245.7739,116.3691,243.7427,2.114e-05,4.9e-07,0.0,0 STARLINK-3447,1 51736U 22016Y   23138.51981972  .00000049  00000-0  21140-4 0  9997,2 51736  53.2159 245.7739 0001223 116.3691 243.7427 15.08836368 69777,6917.891,95.438,540.603,538.91,0.0
51736.0,STARLINK-3447,PAYLOAD,2023-05-19 12:19:19,15.08843943,9.34e-05,53.2162,241.3154,90.4122,269.6977,-4.8303e-06,-3.65e-06,0.0,0 STARLINK-3447,1 51736U 22016Y   23139.51341852 -.00000365  00000-0 -48303-5 0  9999,2 51736  53.2162 241.3154 0000934  90.4122 269.6977 15.08843943 68798,6917.868,95.437,540.379,539.087,0.0
51736.0,STARLINK-3447,PAYLOAD,2023-05-19 23:27:01,15.08844743,9.79e-05,53.2161,239.2339,95.5094,264.601,-1.2416e-05,-4.85e-06,0.0,0 STARLINK-3447,1 51736U 22016Y   23139.97709715 -.00000485  00000-0 -12416-4 0  9993,2 51736  53.2161 239.2339 0000979  95.5094 264.6010 15.08844743 69996,6917.866,95.437,540.408,539.054,0.0
51736.0,STARLINK-3447,PAYLOAD,2023-05-20 15:20:52,15.08844619,0.0001033,53.2152,236.26,95.6847,264.4263,0.00032384,4.87e-05,0.0,0 STARLINK-3447,1 51736U 22016Y   23140.63949602  .00004870  00000-0  32384-3 0  9994,2 51736  53.2152 236.2600 0001033  95.6847 264.4263 15.08844619 68969,6917.866,95.437,540.446,539.017,0.0
51736.0,STARLINK-3447,PAYLOAD,2023-05-21 08:50:07,15.08840728,0.0001666,53.2158,232.9889,66.1531,293.9636,4.5793e-05,4.41e-06,0.0,0 STARLINK-3447,1 51736U 22016Y   23141.36813989  .00000441  00000-0  45793-4 0  9992,2 51736  53.2158 232.9889 0001666  66.1531 293.9636 15.08840728 70200,6917.878,95.438,540.896,538.591,0.0
51736.0,STARLINK-3447,PAYLOAD,2023-05-21 12:00:53,15.08843576,9.81e-05,53.2153,232.3958,91.6686,268.4418,9.365e-05,1.203e-05,0.0,0 STARLINK-3447,1 51736U 22016Y   23141.50061554  .00001203  00000-0  93650-4 0  9993,2 51736  53.2153 232.3958 0000981  91.6686 268.4418 15.08843576 69093,6917.869,95.437,540.413,539.056,0.0
51736.0,STARLINK-3447,PAYLOAD,2023-05-21 15:11:39,15.08846241,0.0001025,53.2153,231.8009,87.6253,272.4856,0.00013323,1.834e-05,0.0,0 STARLINK-3447,1 51736U 22016Y   23141.63309451  .00001834  00000-0  13323-3 0  9996,2 51736  53.2153 231.8009 0001025  87.6253 272.4856 15.08846241 69115,6917.861,95.437,540.435,539.017,0.0
51736.0,STARLINK-3447,PAYLOAD,2023-05-22 08:40:54,15.08832452,0.0001159,53.2151,228.5297,80.9847,279.1276,-5.8283e-05,-1.215e-05,0.0,0 STARLINK-3447,1 51736U 22016Y   23142.36174410 -.00001215  00000-0 -58283-4 0  9992,2 51736  53.2151 228.5297 0001159  80.9847 279.1276 15.08832452 70355,6917.903,95.438,540.57,538.967,0.0
51736.0,STARLINK-3447,PAYLOAD,2023-05-22 11:51:41,15.08831939,0.0001104,53.2152,227.9349,81.8675,278.2442,-6.3198e-05,-1.293e-05,0.0,0 STARLINK-3447,1 51736U 22016Y   23142.49422464 -.00001293  00000-0 -63198-4 0  9998,2 51736  53.2152 227.9349 0001104  81.8675 278.2442 15.08831939 69246,6917.905,95.438,540.534,539.006,0.0
51736.0,STARLINK-3447,PAYLOAD,2023-05-22 13:27:03,15.08839257,0.0001189,53.2162,227.6344,85.0208,275.092,-9.2811e-05,-1.765e-05,0.0,0 STARLINK-3447,1 51736U 22016Y   23142.56045956 -.00001765  00000-0 -92811-4 0  9991,2 51736  53.2162 227.6344 0001189  85.0208 275.0920 15.08839257 70384,6917.883,95.438,540.57,538.925,0.0
51736.0,STARLINK-3447,PAYLOAD,2023-05-23 11:42:28,15.08840105,0.0001079,53.2164,223.4722,93.8417,266.2699,3.1566e-05,2.15e-06,0.0,0 STARLINK-3447,1 51736U 22016Y   23143.48782454  .00000215  00000-0  31566-4 0  9991,2 51736  53.2164 223.4722 0001079  93.8417 266.2699 15.08840105 69395,6917.88,95.438,540.492,538.999,0.0
51736.0,STARLINK-3447,PAYLOAD,2023-05-23 22:50:09,15.0884284,0.0001098,53.216,221.3925,80.6848,279.4268,7.2865e-05,8.72e-06,0.0,0 STARLINK-3447,1 51736U 22016Y   23143.95150245  .00000872  00000-0  72865-4 0  9996,2 51736  53.2160 221.3925 0001098  80.6848 279.4268 15.08842840 70596,6917.872,95.437,540.496,538.977,0.0
